start=new Date('2023-05-21T00:00:00.000Z').valueOf();
sats=[{"ARG_OF_PERICENTER":"89.0982","MEAN_MOTION_DOT":"0.00000737","PERIAPSIS":"538.869","OBJECT_TYPE":"PAYLOAD","OBJECT_NAME":"STARLINK-5134","ELEMENT_SET_NO":"999","RCS_SIZE":"LARGE","CENTER_NAME":"EARTH","DECAY_DATE":null,"ECCENTRICITY":"0.00012500","INCLINATION":"53.2163","FILE":"3913175","SITE":"AFWTR","MEAN_MOTION":"15.08843679","GP_ID":"232210800","EPOCH":"2023-05-20T16:01:17.724864","TLE_LINE2":"2 53976  53.2163 120.9149 0001250  89.0982 271.0153 15.08843679 35011","EPHEMERIS_TYPE":"0","PERIOD":"95.437","OBJECT_ID":"2022-125N","BSTAR":"0.00006436400000","TLE_LINE1":"1 53976U 22125N   23140.66756626  .00000737  00000-0  64364-4 0  9990","MEAN_MOTION_DDOT":"0.0000000000000","MEAN_ELEMENT_THEORY":"SGP4","CLASSIFICATION_TYPE":"U","TIME_SYSTEM":"UTC","RA_OF_ASC_NODE":"120.9149","REF_FRAME":"TEME","REV_AT_EPOCH":"3501","SEMIMAJOR_AXIS":"6917.869","MEAN_ANOMALY":"271.0153","LAUNCH_DATE":"2022-10-05","NORAD_CAT_ID":"53976","APOAPSIS":"540.599","COUNTRY_CODE":"US"},{"TLE_LINE1":"1 53977U 22125P   23140.70391058  .00001248  00000-0  96495-4 0  9998","MEAN_MOTION_DDOT":"0.0000000000000","BSTAR":"0.00009649500000","CLASSIFICATION_TYPE":"U","MEAN_ELEMENT_THEORY":"SGP4","TLE_LINE2":"2 53977  53.2167 136.0835 0001250  85.4810 274.6325 15.08842670 34802","EPOCH":"2023-05-20T16:53:37.874112","PERIOD":"95.437","OBJECT_ID":"2022-125P","EPHEMERIS_TYPE":"0","NORAD_CAT_ID":"53977","APOAPSIS":"540.602","COUNTRY_CODE":"US","LAUNCH_DATE":"2022-10-05","TIME_SYSTEM":"UTC","RA_OF_ASC_NODE":"136.0835","REV_AT_EPOCH":"3480","SEMIMAJOR_AXIS":"6917.872","MEAN_ANOMALY":"274.6325","REF_FRAME":"TEME","OBJECT_TYPE":"PAYLOAD","PERIAPSIS":"538.872","ARG_OF_PERICENTER":"85.4810","MEAN_MOTION_DOT":"0.00001248","ECCENTRICITY":"0.00012500","INCLINATION":"53.2167","RCS_SIZE":"LARGE","CENTER_NAME":"EARTH","DECAY_DATE":null,"GP_ID":"232211550","MEAN_MOTION":"15.08842670","FILE":"3913175","SITE":"AFWTR","OBJECT_NAME":"STARLINK-5094","ELEMENT_SET_NO":"999"},{"EPOCH":"2023-05-20T16:23:10.308480","TLE_LINE2":"2 53978  53.2160 135.9539 0001219  88.0720 272.0411 15.08839749 34800","EPHEMERIS_TYPE":"0","OBJECT_ID":"2022-125Q","PERIOD":"95.438","MEAN_MOTION_DDOT":"0.0000000000000","TLE_LINE1":"1 53978U 22125Q   23140.68275820  .00000524  00000-0  51014-4 0  9998","BSTAR":"0.00005101400000","MEAN_ELEMENT_THEORY":"SGP4","CLASSIFICATION_TYPE":"U","RA_OF_ASC_NODE":"135.9539","TIME_SYSTEM":"UTC","REF_FRAME":"TEME","MEAN_ANOMALY":"272.0411","REV_AT_EPOCH":"3480","SEMIMAJOR_AXIS":"6917.881","LAUNCH_DATE":"2022-10-05","COUNTRY_CODE":"US","NORAD_CAT_ID":"53978","APOAPSIS":"540.589","ARG_OF_PERICENTER":"88.0720","MEAN_MOTION_DOT":"0.00000524","OBJECT_TYPE":"PAYLOAD","PERIAPSIS":"538.903","OBJECT_NAME":"STARLINK-5148","ELEMENT_SET_NO":"999","DECAY_DATE":null,"RCS_SIZE":"LARGE","CENTER_NAME":"EARTH","ECCENTRICITY":"0.00012190","INCLINATION":"53.2160","SITE":"AFWTR","FILE":"3913175","MEAN_MOTION":"15.08839749","GP_ID":"232211557"},{"OBJECT_ID":"2022-125R","PERIOD":"95.438","EPHEMERIS_TYPE":"0","TLE_LINE2":"2 53979  53.2160 136.0151 0001111  86.5717 273.5403 15.08839297 34808","EPOCH":"2023-05-20T16:37:42.744576","CLASSIFICATION_TYPE":"U","MEAN_ELEMENT_THEORY":"SGP4","TLE_LINE1":"1 53979U 22125R   23140.69285584  .00000646  00000-0  58693-4 0  9993","MEAN_MOTION_DDOT":"0.0000000000000","BSTAR":"0.00005869300000","REV_AT_EPOCH":"3480","SEMIMAJOR_AXIS":"6917.883","MEAN_ANOMALY":"273.5403","REF_FRAME":"TEME","TIME_SYSTEM":"UTC","RA_OF_ASC_NODE":"136.0151","NORAD_CAT_ID":"53979","APOAPSIS":"540.516","COUNTRY_CODE":"US","LAUNCH_DATE":"2022-10-05","MEAN_MOTION_DOT":"0.00000646","ARG_OF_PERICENTER":"86.5717","PERIAPSIS":"538.979","OBJECT_TYPE":"PAYLOAD","ELEMENT_SET_NO":"999","OBJECT_NAME":"STARLINK-5123","GP_ID":"232211807","MEAN_MOTION":"15.08839297","FILE":"3913175","SITE":"AFWTR","ECCENTRICITY":"0.00011110","INCLINATION":"53.2160","RCS_SIZE":"LARGE","CENTER_NAME":"EARTH","DECAY_DATE":null},{"ELEMENT_SET_NO":"999","OBJECT_NAME":"STARLINK-5133","SITE":"AFWTR","FILE":"3913175","GP_ID":"232210301","MEAN_MOTION":"15.08843973","DECAY_DATE":null,"CENTER_NAME":"EARTH","RCS_SIZE":"LARGE","INCLINATION":"53.2160","ECCENTRICITY":"0.00011500","MEAN_MOTION_DOT":"0.00000783","ARG_OF_PERICENTER":"82.6084","PERIAPSIS":"538.938","OBJECT_TYPE":"PAYLOAD","REF_FRAME":"TEME","MEAN_ANOMALY":"277.5039","REV_AT_EPOCH":"3474","SEMIMAJOR_AXIS":"6917.868","RA_OF_ASC_NODE":"137.6403","TIME_SYSTEM":"UTC","LAUNCH_DATE":"2022-10-05","COUNTRY_CODE":"US","NORAD_CAT_ID":"53980","APOAPSIS":"540.529","EPHEMERIS_TYPE":"0","OBJECT_ID":"2022-125S","PERIOD":"95.437","EPOCH":"2023-05-20T06:28:15.155040","TLE_LINE2":"2 53980  53.2160 137.6403 0001150  82.6084 277.5039 15.08843973 34742","MEAN_ELEMENT_THEORY":"SGP4","CLASSIFICATION_TYPE":"U","MEAN_MOTION_DDOT":"0.0000000000000","TLE_LINE1":"1 53980U 22125S   23140.26961985  .00000783  00000-0  67243-4 0  9997","BSTAR":"0.00006724300000"},{"NORAD_CAT_ID":"53981","APOAPSIS":"540.573","COUNTRY_CODE":"US","LAUNCH_DATE":"2022-10-05","SEMIMAJOR_AXIS":"6917.876","REV_AT_EPOCH":"3501","MEAN_ANOMALY":"275.1098","REF_FRAME":"TEME","TIME_SYSTEM":"UTC","RA_OF_ASC_NODE":"120.9124","CLASSIFICATION_TYPE":"U","MEAN_ELEMENT_THEORY":"SGP4","TLE_LINE1":"1 53981U 22125T   23140.66660938  .00000776  00000-0  66830-4 0  9999","BSTAR":"0.00006683000000","MEAN_MOTION_DDOT":"0.0000000000000","OBJECT_ID":"2022-125T","PERIOD":"95.437","EPHEMERIS_TYPE":"0","TLE_LINE2":"2 53981  53.2160 120.9124 0001203  85.0031 275.1098 15.08841447 35010","EPOCH":"2023-05-20T15:59:55.050432","MEAN_MOTION":"15.08841447","GP_ID":"232211051","FILE":"3913175","SITE":"AFWTR","ECCENTRICITY":"0.00012030","INCLINATION":"53.2160","RCS_SIZE":"LARGE","CENTER_NAME":"EARTH","DECAY_DATE":null,"ELEMENT_SET_NO":"999","OBJECT_NAME":"STARLINK-5149","PERIAPSIS":"538.909","OBJECT_TYPE":"PAYLOAD","MEAN_MOTION_DOT":"0.00000776","ARG_OF_PERICENTER":"85.0031"},{"APOAPSIS":"540.638","NORAD_CAT_ID":"53982","COUNTRY_CODE":"US","LAUNCH_DATE":"2022-10-05","TIME_SYSTEM":"UTC","RA_OF_ASC_NODE":"131.0408","SEMIMAJOR_AXIS":"6917.878","REV_AT_EPOCH":"3486","MEAN_ANOMALY":"273.6872","REF_FRAME":"TEME","TLE_LINE1":"1 53982U 22125U   23140.69516247  .00000776  00000-0  66809-4 0  9992","MEAN_MOTION_DDOT":"0.0000000000000","BSTAR":"0.00006680900000","CLASSIFICATION_TYPE":"U","MEAN_ELEMENT_THEORY":"SGP4","TLE_LINE2":"2 53982  53.2169 131.0408 0001294  86.4268 273.6872 15.08840833 34868","EPOCH":"2023-05-20T16:41:02.037408","OBJECT_ID":"2022-125U","PERIOD":"95.438","EPHEMERIS_TYPE":"0","INCLINATION":"53.2169","ECCENTRICITY":"0.00012940","CENTER_NAME":"EARTH","RCS_SIZE":"LARGE","DECAY_DATE":null,"MEAN_MOTION":"15.08840833","GP_ID":"232211058","FILE":"3913175","SITE":"AFWTR","OBJECT_NAME":"STARLINK-5120","ELEMENT_SET_NO":"999","OBJECT_TYPE":"PAYLOAD","PERIAPSIS":"538.848","ARG_OF_PERICENTER":"86.4268","MEAN_MOTION_DOT":"0.00000776"},{"EPHEMERIS_TYPE":"0","OBJECT_ID":"2022-125V","PERIOD":"95.437","EPOCH":"2023-05-20T16:10:31.227456","TLE_LINE2":"2 53983  53.2166 120.9400 0001249  86.5388 273.5747 15.08845627 35013","MEAN_ELEMENT_THEORY":"SGP4","CLASSIFICATION_TYPE":"U","BSTAR":"0.00010067000000","TLE_LINE1":"1 53983U 22125V   23140.67397254  .00001315  00000-0  10067-3 0  9990","MEAN_MOTION_DDOT":"0.0000000000000","REF_FRAME":"TEME","MEAN_ANOMALY":"273.5747","REV_AT_EPOCH":"3501","SEMIMAJOR_AXIS":"6917.863","RA_OF_ASC_NODE":"120.9400","TIME_SYSTEM":"UTC","LAUNCH_DATE":"2022-10-05","COUNTRY_CODE":"US","NORAD_CAT_ID":"53983","APOAPSIS":"540.592","MEAN_MOTION_DOT":"0.00001315","ARG_OF_PERICENTER":"86.5388","PERIAPSIS":"538.864","OBJECT_TYPE":"PAYLOAD","ELEMENT_SET_NO":"999","OBJECT_NAME":"STARLINK-5103","SITE":"AFWTR","FILE":"3913175","GP_ID":"232211308","MEAN_MOTION":"15.08845627","DECAY_DATE":null,"CENTER_NAME":"EARTH","RCS_SIZE":"LARGE","ECCENTRICITY":"0.00012490","INCLINATION":"53.2166"},{"COUNTRY_CODE":"US","NORAD_CAT_ID":"53984","APOAPSIS":"540.528","LAUNCH_DATE":"2022-10-05","RA_OF_ASC_NODE":"131.1144","TIME_SYSTEM":"UTC","MEAN_ANOMALY":"272.9354","SEMIMAJOR_AXIS":"6917.861","REV_AT_EPOCH":"3487","REF_FRAME":"TEME","TLE_LINE1":"1 53984U 22125W   23140.70621424  .00001921  00000-0  13874-3 0  9996","BSTAR":"0.00013874000000","MEAN_MOTION_DDOT":"0.0000000000000","CLASSIFICATION_TYPE":"U","MEAN_ELEMENT_THEORY":"SGP4","TLE_LINE2":"2 53984  53.2161 131.1144 0001159  87.1770 272.9354 15.08846418 34879","EPOCH":"2023-05-20T16:56:56.910336","OBJECT_ID":"2022-125W","PERIOD":"95.437","EPHEMERIS_TYPE":"0","ECCENTRICITY":"0.00011590","INCLINATION":"53.2161","DECAY_DATE":null,"CENTER_NAME":"EARTH","RCS_SIZE":"LARGE","MEAN_MOTION":"15.08846418","GP_ID":"232210801","SITE":"AFWTR","FILE":"3913175","OBJECT_NAME":"STARLINK-5142","ELEMENT_SET_NO":"999","OBJECT_TYPE":"PAYLOAD","PERIAPSIS":"538.924","ARG_OF_PERICENTER":"87.1770","MEAN_MOTION_DOT":"0.00001921"},{"REF_FRAME":"TEME","MEAN_ANOMALY":"280.8383","SEMIMAJOR_AXIS":"6917.861","REV_AT_EPOCH":"3487","RA_OF_ASC_NODE":"131.1603","TIME_SYSTEM":"UTC","LAUNCH_DATE":"2022-10-05","COUNTRY_CODE":"US","NORAD_CAT_ID":"53985","APOAPSIS":"540.481","EPHEMERIS_TYPE":"0","PERIOD":"95.437","OBJECT_ID":"2022-125X","EPOCH":"2023-05-20T17:07:33.206592","TLE_LINE2":"2 53985  53.2160 131.1603 0001091  79.2732 280.8383 15.08846185 34875","MEAN_ELEMENT_THEORY":"SGP4","CLASSIFICATION_TYPE":"U","TLE_LINE1":"1 53985U 22125X   23140.71357878  .00000898  00000-0  74505-4 0  9998","BSTAR":"0.00007450500000","MEAN_MOTION_DDOT":"0.0000000000000","ELEMENT_SET_NO":"999","OBJECT_NAME":"STARLINK-5147","SITE":"AFWTR","FILE":"3913175","GP_ID":"232211551","MEAN_MOTION":"15.08846185","DECAY_DATE":null,"CENTER_NAME":"EARTH","RCS_SIZE":"LARGE","INCLINATION":"53.2160","ECCENTRICITY":"0.00010910","MEAN_MOTION_DOT":"0.00000898","ARG_OF_PERICENTER":"79.2732","OBJECT_TYPE":"PAYLOAD","PERIAPSIS":"538.972"}];
